25042,IRIDIUM 39,1997,99.36,-1.0,-,86.39,Inactive,0,LEO,USA,USA,Unknown,Unknown,Unknown,1 25042U 97069D   25165.85030721  .00000502  00000+0  12636-3 0  9996,2 25042  86.3931 212.1326 0016160 320.7618  39.2414 14.49218306448886,14.49218306,0.001616,LEO
25043,IRIDIUM 38,1997,100.13,-1.0,-,86.4,Inactive,0,LEO,USA,USA,Unknown,Unknown,Unknown,1 25043U 97069E   25165.59445699  .00000402  00000+0  12615-3 0  9998,2 25043  86.3969 234.2447 0004244  99.7902 260.3775 14.38116691445589,14.38116691,0.0004244,LEO
25077,IRIDIUM 42,1997,100.25,-1.0,-,86.4,Inactive,0,LEO,PRC,USA,Unknown,Unknown,Unknown,1 25077U 97077A   25165.45814494  .00000339  00000+0  10934-3 0  9993,2 25077  86.3970 240.4684 0002978 101.3872 258.7659 14.36351134440801,14.36351134,0.0002978,LEO
25078,IRIDIUM 44,1997,99.98,-1.0,-,86.4,Inactive,0,LEO,PRC,USA,Unknown,Unknown,Unknown,1 25078U 97077B   25165.55890974  .00000369  00000+0  11052-3 0  9997,2 25078  86.3975 222.3598 0003741  68.2500 291.9097 14.40241039443320,14.40241039,0.0003741,LEO
25104,IRIDIUM 45,1997,94.59,-1.0,-,86.36,Inactive,0,LEO,USA,USA,Unknown,Unknown,Unknown,1 25104U 97082A   25165.42706075  .00018721  00000+0  67117-3 0  9991,2 25104  86.3579  49.2358 0115772 343.4015  16.3450 15.22365132451623,15.22365132,0.0115772,LEO
25105,IRIDIUM 24,1997,99.85,-1.0,-,86.39,Inactive,0,LEO,USA,USA,Unknown,Unknown,Unknown,1 25105U 97082B   25165.46605006  .00000472  00000+0  13751-3 0  9997,2 25105  86.3902  81.4557 0013658  86.9287 273.3475 14.42097625442827,14.42097625,0.0013658,LEO
25262,IRIDIUM 51,1998,93.53,-1.0,-,86.38,Inactive,0,LEO,PRC,USA,Unknown,Unknown,Unknown,1 25262U 98018A   25165.43131311  .00031309  00000+0  69906-3 0  9997,2 25262  86.3835  57.1991 0083482 260.4812  98.7000 15.39684161446600,15.39684161,0.0083482,LEO
